{
  "type": "Feature",
  "properties": {
    "tour_id": "tour_melb_essentials_7",
    "tour_name": "멜버른 핵심 7선 도보 투어",
    "points_count": 23
  },
  "geometry": {
    "type": "LineString",
    "coordinates": [
      [
        144.967204,
        -37.81776
      ],
      [
        144.967563,
        -37.817817
      ],
      [
        144.96769,
        -37.817783
      ],
      [
        144.967816,
        -37.817794
      ],
      [
        144.967982,
        -37.817978
      ],
      [
        144.968095,
        -37.818154
      ],
      [
        144.968497,
        -37.818039
      ],
      [
        144.969044,
        -37.817995
      ],
      [
        144.969044,
        -37.817995
      ],
      [
        144.969004,
        -37.817272
      ],
      [
        144.969031,
        -37.817158
      ],
      [
        144.969873,
        -37.816895
      ],
      [
        144.969744,
        -37.816696
      ],
      [
        144.969304,
        -37.816827
      ],
      [
        144.969116,
        -37.81637
      ],
      [
        144.969116,
        -37.81637
      ],
      [
        144.968864,
        -37.815927
      ],
      [
        144.96832,
        -37.816073
      ],
      [
        144.967773,
        -37.816234
      ],
      [
        144.967963,
        -37.816656
      ],
      [
        144.968076,
        -37.816895
      ],
      [
        144.96817,
        -37.817118
      ],
      [
        144.967872,
        -37.817209
      ]
    ]
  }
}