{
  "type": "Feature",
  "properties": {
    "tour_id": "tour_arcade_coffee_5",
    "tour_name": "아케이드 & 커피 골목 감성 투어",
    "points_count": 25
  },
  "geometry": {
    "type": "LineString",
    "coordinates": [
      [
        144.966002,
        -37.817847
      ],
      [
        144.965557,
        -37.816908
      ],
      [
        144.965528,
        -37.81687
      ],
      [
        144.965528,
        -37.81687
      ],
      [
        144.965332,
        -37.816463
      ],
      [
        144.965093,
        -37.816039
      ],
      [
        144.964782,
        -37.816122
      ],
      [
        144.964693,
        -37.815963
      ],
      [
        144.964693,
        -37.815963
      ],
      [
        144.964516,
        -37.815476
      ],
      [
        144.964406,
        -37.815507
      ],
      [
        144.964213,
        -37.815065
      ],
      [
        144.964329,
        -37.815035
      ],
      [
        144.96431,
        -37.814995
      ],
      [
        144.96431,
        -37.814995
      ],
      [
        144.963878,
        -37.814039
      ],
      [
        144.963832,
        -37.813975
      ],
      [
        144.963698,
        -37.813999
      ],
      [
        144.963288,
        -37.813111
      ],
      [
        144.962872,
        -37.813255
      ],
      [
        144.963253,
        -37.814094
      ],
      [
        144.963618,
        -37.814018
      ],
      [
        144.964203,
        -37.813869
      ],
      [
        144.964616,
        -37.813751
      ],
      [
        144.964991,
        -37.813632
      ]
    ]
  }
}