{
  "type": "Feature",
  "properties": {
    "tour_id": "tour_culture_history_6",
    "tour_name": "멜버른 인문학 & 세계유산 투어",
    "points_count": 42
  },
  "geometry": {
    "type": "LineString",
    "coordinates": [
      [
        144.964079,
        -37.810144
      ],
      [
        144.965061,
        -37.809852
      ],
      [
        144.964508,
        -37.809924
      ],
      [
        144.964036,
        -37.810064
      ],
      [
        144.963827,
        -37.809585
      ],
      [
        144.966171,
        -37.808996
      ],
      [
        144.966112,
        -37.808822
      ],
      [
        144.965678,
        -37.807864
      ],
      [
        144.965678,
        -37.807864
      ],
      [
        144.965672,
        -37.807105
      ],
      [
        144.965758,
        -37.806893
      ],
      [
        144.968634,
        -37.807165
      ],
      [
        144.968956,
        -37.807199
      ],
      [
        144.971187,
        -37.80558
      ],
      [
        144.971573,
        -37.805613
      ],
      [
        144.971691,
        -37.805461
      ],
      [
        144.97241,
        -37.805478
      ],
      [
        144.97241,
        -37.805478
      ],
      [
        144.972813,
        -37.804295
      ],
      [
        144.971622,
        -37.804172
      ],
      [
        144.971681,
        -37.803668
      ],
      [
        144.971681,
        -37.803668
      ],
      [
        144.972775,
        -37.804291
      ],
      [
        144.972346,
        -37.805461
      ],
      [
        144.971681,
        -37.805461
      ],
      [
        144.971659,
        -37.805681
      ],
      [
        144.973075,
        -37.807665
      ],
      [
        144.973032,
        -37.808038
      ],
      [
        144.972839,
        -37.809089
      ],
      [
        144.972818,
        -37.809428
      ],
      [
        144.972732,
        -37.810259
      ],
      [
        144.972965,
        -37.810252
      ],
      [
        144.973022,
        -37.810742
      ],
      [
        144.973279,
        -37.811208
      ],
      [
        144.97344,
        -37.811619
      ],
      [
        144.97344,
        -37.811619
      ],
      [
        144.973612,
        -37.812208
      ],
      [
        144.974513,
        -37.81195
      ],
      [
        144.975264,
        -37.810623
      ],
      [
        144.975527,
        -37.810708
      ],
      [
        144.975709,
        -37.81056
      ],
      [
        144.97587,
        -37.810475
      ]
    ]
  }
}